{
 "type": "FeatureCollection",
 "features": [
  {
   "type": "Feature",
   "geometry": {
    "type": "LineString",
    "coordinates": [
     [
      18.37669073046722,
      -33.994163284378295,
      718.7
     ],
     [
      18.37669073046722,
      -33.994163284378295,
      718.7
     ],
     [
      18.376704454421997,
      -33.99415792981161,
      719.5
     ],
     [
      18.37665617465973,
      -33.994140139369975,
      719.9
     ],
     [
      18.376511335372925,
      -33.994135691758984,
      717.2
     ],
     [
      18.37638795375824,
      -33.994091215636274,
      720.6
     ],
     [
      18.376291394233704,
      -33.994082320408936,
      720.9
     ],
     [
      18.376049995422363,
      -33.993975577608275,
      730.9
     ],
     [
      18.375990986824036,
      -33.99397112998868,
      731.4
     ],
     [
      18.375958800315857,
      -33.99399336808437,
      729.3
     ],
     [
      18.375931018315,
      -33.993995400491656,
      728.9
     ],
     [
      18.375776410102844,
      -33.99400671093899,
      727.1
     ],
     [
      18.375695943832397,
      -33.993997815702805,
      727.6
     ],
     [
      18.375497460365295,
      -33.99386883467352,
      739
     ],
     [
      18.375325798988342,
      -33.993793225013576,
      744.4
     ],
     [
      18.375197052955627,
      -33.99377543449558,
      743.5
     ],
     [
      18.375041484832764,
      -33.99376653923519,
      739.8
     ],
     [
      18.374950289726257,
      -33.99373985344841,
      739.2
     ],
     [
      18.37486445903778,
      -33.99372651055189,
      737.5
     ],
     [
      18.37465524673462,
      -33.99361531966597,
      739.7
     ],
     [
      18.37440311908722,
      -33.99353526213802,
      736.4
     ],
     [
      18.374274373054504,
      -33.99351302392242,
      732.8
     ],
     [
      18.374183177947998,
      -33.99352191920936,
      728.6
     ],
     [
      18.37414026260376,
      -33.99349523334575,
      729.1
     ],
     [
      18.37409198284149,
      -33.99339293745762,
      738
     ],
     [
      18.374086618423462,
      -33.99333067033498,
      744.7
     ],
     [
      18.374043703079224,
      -33.993250612538816,
      751.9
     ],
     [
      18.373995423316956,
      -33.99321058361244,
      753.7
     ],
     [
      18.373995423316956,
      -33.99312163037522,
      762.3
     ],
     [
      18.37389886379242,
      -33.99296596198599,
      771
     ],
     [
      18.37390422821045,
      -33.992934828273924,
      774.2
     ],
     [
      18.37392032146454,
      -33.992917037576184,
      776.8
     ],
     [
      18.37387204170227,
      -33.992788054906214,
      780.2
     ],
     [
      18.373791575431824,
      -33.99271689197,
      778.8
     ],
     [
      18.37367355823517,
      -33.9926724151046,
      772.2
     ],
     [
      18.37359309196472,
      -33.99256567053265,
      769.6
     ],
     [
      18.37336778640747,
      -33.99240555342329,
      756.6
     ],
     [
      18.373228311538696,
      -33.992281017685194,
      748.2
     ],
     [
      18.37316393852234,
      -33.992080870580835,
      744.9
     ],
     [
      18.37312638759613,
      -33.99204973654445,
      740.5
     ],
     [
      18.373083472251892,
      -33.99196522981676,
      735.3
     ],
     [
      18.373019099235535,
      -33.99177842517311,
      728
     ],
     [
      18.372970819473267,
      -33.99170726139131,
      722.8
     ],
     [
      18.372954726219177,
      -33.99163164980785,
      720.8
     ],
     [
      18.372965455055237,
      -33.99151156068405,
      720.1
     ],
     [
      18.373067378997803,
      -33.99136033710157,
      722.5
     ],
     [
      18.37310492992401,
      -33.991258038643146,
      722.4
     ],
     [
      18.373212218284607,
      -33.99115129229437,
      729.7
     ],
     [
      18.373239040374756,
      -33.991066784673144,
      729
     ],
     [
      18.373222947120667,
      -33.99089776917856,
      721.2
     ],
     [
      18.373255133628845,
      -33.990831052443426,
      720.7
     ],
     [
      18.37339460849762,
      -33.990733201137125,
      728.4
     ],
     [
      18.373442888259888,
      -33.99067093206537,
      729.8
     ],
     [
      18.373469710350037,
      -33.990617558538965,
      729.2
     ],
     [
      18.373534083366394,
      -33.990541945985846,
      726.7
     ],
     [
      18.37363064289093,
      -33.99046633336544,
      725.1
     ],
     [
      18.373705744743347,
      -33.99043075093255,
      725.2
     ],
     [
      18.373791575431824,
      -33.990368481639166,
      723.1
     ],
     [
      18.37386131286621,
      -33.99035958602209,
      723.3
     ],
     [
      18.37388638066041,
      -33.99036903352155,
      724.2
     ],
     [
      18.37392032146454,
      -33.99038182506302,
      725.3
     ],
     [
      18.373973965644836,
      -33.99038182506302,
      725.9
     ],
     [
      18.374070525169373,
      -33.99034179478517,
      724.2
     ],
     [
      18.37415099143982,
      -33.99031955573376,
      723
     ],
     [
      18.374242186546326,
      -33.990310660111575,
      722.7
     ],
     [
      18.374505043029785,
      -33.99020836038947,
      716.2
     ],
     [
      18.37459087371826,
      -33.990221703838465,
      716.4
     ],
     [
      18.374735713005066,
      -33.99024839073018,
      716.5
     ],
     [
      18.374778628349304,
      -33.9902706298002,
      717.1
     ],
     [
      18.374814901706955,
      -33.99033292883788,
      719.5
     ],
     [
      18.37485373020172,
      -33.99039961629156,
      721.9
     ],
     [
      18.37484836578369,
      -33.990448542150865,
      724.5
     ],
     [
      18.374832272529602,
      -33.99049746798199,
      727.5
     ],
     [
      18.374789357185364,
      -33.990541945985846,
      730.4
     ],
     [
      18.374783992767334,
      -33.99057752837217,
      732.5
     ],
     [
      18.37485909461975,
      -33.99064869310011,
      735.9
     ],
     [
      18.374934196472168,
      -33.99067093206537,
      737.7
     ],
     [
      18.375020027160645,
      -33.99068427544173,
      739.1
     ],
     [
      18.374998569488525,
      -33.99074654450372,
      743.4
     ],
     [
      18.37492346763611,
      -33.990804365734704,
      746.9
     ],
     [
      18.374810814857483,
      -33.99085773914376,
      750.4
     ],
     [
      18.374773263931274,
      -33.99088442583573,
      752.4
     ],
     [
      18.374762535095215,
      -33.99092000807864,
      755
     ],
     [
      18.374789357185364,
      -33.99096448586132,
      758
     ],
     [
      18.37484300136566,
      -33.991026754717964,
      762.5
     ],
     [
      18.37509512901306,
      -33.99120021772087,
      777.4
     ],
     [
      18.37510585784912,
      -33.99123135206853,
      779.7
     ],
     [
      18.37515950202942,
      -33.991280277448936,
      783.3
     ],
     [
      18.37515413761139,
      -33.99133365055907,
      786.6
     ],
     [
      18.37515413761139,
      -33.99147597868886,
      795.6
     ],
     [
      18.37511957576293,
      -33.99153687254684,
      799.2
     ],
     [
      18.37511122226715,
      -33.99155159041085,
      799.7
     ],
     [
      18.37509512901306,
      -33.99163164980785,
      802.6
     ],
     [
      18.37513267993927,
      -33.99174729102591,
      806.8
     ],
     [
      18.37510585784912,
      -33.991849588895306,
      810.1
     ],
     [
      18.37512195110321,
      -33.99193854346425,
      812.1
     ],
     [
      18.375180959701538,
      -33.992107556888655,
      815.6
     ],
     [
      18.375261425971985,
      -33.99218761576182,
      816.6
     ],
     [
      18.37539553642273,
      -33.99227656997687,
      817.5
     ],
     [
      18.375304341316223,
      -33.99247671662026,
      820.8
     ],
     [
      18.375309705734253,
      -33.99253898436871,
      821.5
     ],
     [
      18.375454545021057,
      -33.992561222839235,
      822.2
     ],
     [
      18.375529646873474,
      -33.99260569976285,
      823.1
     ],
     [
      18.37561011314392,
      -33.99264128128497,
      824
     ],
     [
      18.37561011314392,
      -33.99270354891283,
      823.5
     ],
     [
      18.37559401988983,
      -33.992739130393964,
      823.2
     ],
     [
      18.375583291053772,
      -33.992774711860214,
      823
     ],
     [
      18.37565302848816,
      -33.992805845630954,
      822.9
     ],
     [
      18.37565302848816,
      -33.99283697939028,
      822.7
     ],
     [
      18.375679850578308,
      -33.99286366546063,
      822.5
     ],
     [
      18.375760316848755,
      -33.992881456169535,
      821.2
     ],
     [
      18.375787138938904,
      -33.992934828273924,
      819.6
     ],
     [
      18.37587833404541,
      -33.99293038059984,
      818.2
     ],
     [
      18.376033902168274,
      -33.99298820034476,
      812.7
     ],
     [
      18.37599264996734,
      -33.99297298107164,
      814.2
     ],
     [
      18.376033902168274,
      -33.99298820034476,
      812.7
     ],
     [
      18.376227021217346,
      -33.99302378170671,
      807.3
     ],
     [
      18.376296758651733,
      -33.99312607803929,
      802
     ],
     [
      18.376259207725525,
      -33.993175002328734,
      800.8
     ],
     [
      18.376253843307495,
      -33.9932061359528,
      799.2
     ],
     [
      18.376264572143555,
      -33.993219478931046,
      798.1
     ],
     [
      18.376328945159912,
      -33.993228374248716,
      796.6
     ],
     [
      18.376522064208984,
      -33.99328174613517,
      790.5
     ],
     [
      18.376731276512146,
      -33.99331732737419,
      786
     ],
     [
      18.376795649528503,
      -33.9933529085983,
      783.5
     ],
     [
      18.376839272643167,
      -33.99336496460732,
      782.2
     ],
     [
      18.37686002254486,
      -33.993370699204775,
      781.5
     ],
     [
      18.376956582069397,
      -33.99343296629807,
      777
     ],
     [
      18.376956582069397,
      -33.993477442765354,
      775
     ],
     [
      18.37688684463501,
      -33.99351747156601,
      773.5
     ],
     [
      18.37687611579895,
      -33.99353970978043,
      772.2
     ],
     [
      18.37688684463501,
      -33.99357529091142,
      769.8
     ],
     [
      18.376940488815308,
      -33.99361087202751,
      767.2
     ],
     [
      18.376969837260496,
      -33.99361695522545,
      766.7
     ],
     [
      18.377004861831665,
      -33.9936242149422,
      766.1
     ],
     [
      18.377069234848022,
      -33.99360197674988,
      767
     ],
     [
      18.377267718315125,
      -33.99368203421498,
      759.2
     ],
     [
      18.3774071931839,
      -33.99364645312869,
      757.2
     ],
     [
      18.377466201782227,
      -33.993699824752525,
      753.5
     ],
     [
      18.377487659454346,
      -33.993735405816466,
      751.7
     ],
     [
      18.377525210380554,
      -33.99375764397386,
      750.1
     ],
     [
      18.377557396888733,
      -33.99375764397386,
      749.2
     ],
     [
      18.377541303634644,
      -33.99382435841111,
      748.3
     ],
     [
      18.37759494781494,
      -33.99388217754769,
      746.3
     ],
     [
      18.37759494781494,
      -33.99389996804334,
      746
     ],
     [
      18.377534695748345,
      -33.99394575994285,
      746
     ],
     [
      18.377530574798584,
      -33.99394889188716,
      746
     ],
     [
      18.377466201782227,
      -33.99400671093899,
      745.2
     ],
     [
      18.377428650856018,
      -33.993988920465696,
      746
     ],
     [
      18.37735891342163,
      -33.99399336808437,
      746.4
     ],
     [
      18.377246260643005,
      -33.99402005379152,
      743.9
     ],
     [
      18.377197980880737,
      -33.9940422918744,
      742
     ],
     [
      18.37714433670044,
      -33.99405118710593,
      740.5
     ],
     [
      18.377026319503784,
      -33.99404673949029,
      738.2
     ],
     [
      18.37692439556122,
      -33.994091215636274,
      731.5
     ],
     [
      18.376790285110474,
      -33.99416237742143,
      721.1
     ],
     [
      18.376704454421997,
      -33.99415792981161,
      719.5
     ],
     [
      18.37670247312198,
      -33.994158702839734,
      719.3
     ]
    ]
   },
   "properties": {
    "routeId": "table-mountain--atlantic-west--grootkop-yellowwood-traverse",
    "drawn": "2026-08-17"
   }
  },
  {
   "type": "Feature",
   "geometry": {
    "type": "LineString",
    "coordinates": [
     [
      18.35451253483042,
      -33.99963870702369,
      538.9
     ],
     [
      18.354511857032776,
      -33.999637208565346,
      539
     ],
     [
      18.354517221450806,
      -33.99957049869271,
      543.1
     ],
     [
      18.35437774658203,
      -33.99957939334542,
      532.9
     ],
     [
      18.354324102401733,
      -33.99956605136602,
      529.7
     ],
     [
      18.354286551475525,
      -33.999490446776406,
      530.3
     ],
     [
      18.354270458221436,
      -33.99943263145661,
      531.5
     ],
     [
      18.354211449623108,
      -33.99942373678852,
      527.4
     ],
     [
      18.35416316986084,
      -33.99936592142331,
      525.7
     ],
     [
      18.354114890098572,
      -33.999276974630774,
      523.7
     ],
     [
      18.35413634777069,
      -33.99922805385517,
      525.8
     ],
     [
      18.35414707660675,
      -33.999027923116174,
      528.1
     ],
     [
      18.354109525680542,
      -33.99885002873012,
      514.2
     ],
     [
      18.35413634777069,
      -33.998721055067286,
      508.1
     ],
     [
      18.35419535636902,
      -33.998681028718316,
      509.9
     ],
     [
      18.354495763778687,
      -33.99852981789644,
      521.3
     ],
     [
      18.35466206073761,
      -33.99842308068365,
      519.9
     ],
     [
      18.3548766374588,
      -33.9983074485518,
      513.8
     ],
     [
      18.354962468147278,
      -33.998289658979076,
      514.1
     ],
     [
      18.355010747909546,
      -33.99830300115896,
      518
     ],
     [
      18.355069756507874,
      -33.99828521158532,
      517.5
     ],
     [
      18.355289697647095,
      -33.99811621044984,
      499.4
     ],
     [
      18.35542380809784,
      -33.99811621044984,
      503.6
     ],
     [
      18.355633020401,
      -33.99799168308225,
      491.4
     ],
     [
      18.355836868286133,
      -33.997947208978154,
      492.3
     ],
     [
      18.356067538261414,
      -33.99790718226456,
      497.1
     ],
     [
      18.35618555545807,
      -33.99784936586718,
      496.7
     ],
     [
      18.356518149375916,
      -33.99778710201063,
      504.2
     ],
     [
      18.35692584514618,
      -33.997640337025324,
      499.1
     ],
     [
      18.35717797279358,
      -33.99750691409138,
      487.8
     ],
     [
      18.357741236686707,
      -33.99740462303345,
      488.9
     ],
     [
      18.357818537691895,
      -33.99738631234034,
      489.6
     ],
     [
      18.358079195022583,
      -33.99732456907611,
      492.9
     ],
     [
      18.358352780342102,
      -33.99724451504333,
      494.8
     ],
     [
      18.358502984046936,
      -33.99721338289909,
      496.7
     ],
     [
      18.35866928100586,
      -33.99712443385271,
      494.1
     ],
     [
      18.358765840530396,
      -33.99709330166448,
      494.5
     ],
     [
      18.358803391456604,
      -33.99695987787138,
      485.9
     ],
     [
      18.359012603759766,
      -33.99682200639839,
      484
     ],
     [
      18.35919499397278,
      -33.99674639936658,
      483
     ],
     [
      18.359302282333374,
      -33.996710819563624,
      482.9
     ],
     [
      18.359447121620178,
      -33.99669302965656,
      479.6
     ],
     [
      18.359516859054565,
      -33.996728609466956,
      481.1
     ],
     [
      18.359549045562744,
      -33.9969020608293,
      493
     ],
     [
      18.359559774398804,
      -33.997031037253784,
      502
     ],
     [
      18.35918426513672,
      -33.99711998639795,
      504.2
     ],
     [
      18.358604907989502,
      -33.99744020254583,
      515.7
     ],
     [
      18.358492255210876,
      -33.997591415307205,
      526
     ],
     [
      18.35842788219452,
      -33.99763144216958,
      528.7
     ],
     [
      18.358283042907715,
      -33.99769370614023,
      533.4
     ],
     [
      18.358213305473328,
      -33.997729285531534,
      536.5
     ],
     [
      18.35817039012909,
      -33.997804891688595,
      544
     ],
     [
      18.35815966129303,
      -33.997876050363175,
      551.3
     ],
     [
      18.35819184780121,
      -33.99794276156647,
      558.4
     ],
     [
      18.35818111896515,
      -33.99804060456985,
      569.3
     ],
     [
      18.358277678489685,
      -33.9981517896642,
      581
     ],
     [
      18.35838496685028,
      -33.998249632426834,
      592.2
     ],
     [
      18.35837960243225,
      -33.99830300115896,
      599.1
     ],
     [
      18.358309864997864,
      -33.998391948971324,
      610.6
     ],
     [
      18.358315229415894,
      -33.99848089669056,
      621.6
     ],
     [
      18.358465433120728,
      -33.99858763383071,
      633.5
     ],
     [
      18.358545899391174,
      -33.99866323922383,
      642.1
     ],
     [
      18.3586585521698,
      -33.99879666034167,
      654.9
     ],
     [
      18.358781933784485,
      -33.99891229180762,
      662.6
     ],
     [
      18.358975052833557,
      -33.99897010748157,
      667.4
     ],
     [
      18.359087705612183,
      -33.99896566012343,
      667.6
     ],
     [
      18.359216451644897,
      -33.99900123898202,
      670.3
     ],
     [
      18.359284558016263,
      -33.9990755328869,
      673.4
     ],
     [
      18.359318375587463,
      -33.99911242281904,
      674.4
     ],
     [
      18.35944175720215,
      -33.99922805385517,
      676.9
     ],
     [
      18.359570503234863,
      -33.99931700069894,
      679
     ],
     [
      18.359581232070923,
      -33.99939260544292,
      680.2
     ],
     [
      18.359559774398804,
      -33.999463762787535,
      681.3
     ],
     [
      18.359656605444382,
      -33.99964621046178,
      684.2
     ],
     [
      18.359676510023792,
      -33.99968560955759,
      684.9
     ]
    ]
   },
   "properties": {
    "routeId": "table-mountain--atlantic-west--lekkerwater-traverse",
    "drawn": "2026-08-17"
   }
  },
  {
   "type": "Feature",
   "geometry": {
    "type": "LineString",
    "coordinates": [
     [
      18.35451325145793,
      -33.99964029132614,
      538.9
     ],
     [
      18.354511857032776,
      -33.999637208565346,
      539
     ],
     [
      18.35464060306549,
      -33.99958828799721,
      550.2
     ],
     [
      18.354586958885193,
      -33.999552709384496,
      549
     ],
     [
      18.354560136795044,
      -33.99945486812272,
      552.5
     ],
     [
      18.354560136795044,
      -33.99933034271748,
      559.5
     ],
     [
      18.354458212852478,
      -33.999125764869696,
      555.6
     ],
     [
      18.35444211959839,
      -33.99891229180762,
      550
     ],
     [
      18.354501128196716,
      -33.99888116027458,
      553.7
     ],
     [
      18.354565501213074,
      -33.9988678181855,
      558.8
     ],
     [
      18.354603052139282,
      -33.99882779190567,
      559.5
     ],
     [
      18.35466206073761,
      -33.99881000244192,
      561.5
     ],
     [
      18.354721069335938,
      -33.998801107708644,
      563.9
     ],
     [
      18.35487127304077,
      -33.998752186659,
      568.9
     ],
     [
      18.354973196983337,
      -33.998725502438226,
      568.2
     ],
     [
      18.355101943016052,
      -33.99871216032471,
      569.5
     ],
     [
      18.35515558719635,
      -33.998681028718316,
      567.6
     ],
     [
      18.355278968811035,
      -33.99863210759951,
      565.6
     ],
     [
      18.35537016391754,
      -33.99862321284761,
      566.6
     ],
     [
      18.355552554130554,
      -33.99856094955825,
      566.2
     ],
     [
      18.35565447807312,
      -33.99849423884042,
      563
     ],
     [
      18.3558851480484,
      -33.99842308068365,
      562.8
     ],
     [
      18.35592806339264,
      -33.998383054194285,
      558.8
     ],
     [
      18.355987071990967,
      -33.99835636985756,
      557.5
     ],
     [
      18.356046080589294,
      -33.99834747507679,
      559
     ],
     [
      18.356088995933533,
      -33.99832968551246,
      558.5
     ],
     [
      18.356207013130188,
      -33.998325238120785,
      563.6
     ],
     [
      18.356239199638367,
      -33.9983118959444,
      563.3
     ],
     [
      18.356298208236694,
      -33.998254079822466,
      558.3
     ],
     [
      18.35640549659729,
      -33.998187368863654,
      554.7
     ],
     [
      18.356593251228333,
      -33.99812955265696,
      556.3
     ],
     [
      18.356856107711792,
      -33.998098420837074,
      564.3
     ],
     [
      18.357065320014954,
      -33.99800947271737,
      558.3
     ],
     [
      18.357092142105103,
      -33.99800947271737,
      559.1
     ],
     [
      18.35742473602295,
      -33.99793386674238,
      552
     ],
     [
      18.3576500415802,
      -33.99792052450452,
      552.5
     ],
     [
      18.357714414596558,
      -33.997902734850776,
      551
     ],
     [
      18.357722808978977,
      -33.9978910777949,
      549.5
     ],
     [
      18.357821702957153,
      -33.99775374635443,
      533.4
     ],
     [
      18.35793435573578,
      -33.997644784452845,
      522.6
     ],
     [
      18.358009457588196,
      -33.99760031016715,
      519.3
     ],
     [
      18.358079195022583,
      -33.99757362558455,
      518.1
     ],
     [
      18.35816502571106,
      -33.99756473072182,
      519.3
     ],
     [
      18.358207941055298,
      -33.99757362558455,
      521.1
     ],
     [
      18.358234763145447,
      -33.997591415307205,
      523.1
     ],
     [
      18.358492255210876,
      -33.997591415307205,
      526
     ],
     [
      18.359329104423523,
      -33.9976136524553,
      535.2
     ],
     [
      18.3599191904068,
      -33.99754249356092,
      546.4
     ],
     [
      18.360525369644165,
      -33.997635889597575,
      571.4
     ],
     [
      18.361260294914246,
      -33.9972711997293,
      583.2
     ],
     [
      18.36138367652893,
      -33.997062169464826,
      563.4
     ],
     [
      18.361796736717224,
      -33.996999905031316,
      576.7
     ],
     [
      18.3623868227005,
      -33.996848691217075,
      591.8
     ],
     [
      18.36312174797058,
      -33.99670192461056,
      599.8
     ],
     [
      18.363502621650696,
      -33.99673305694222,
      623.5
     ],
     [
      18.364001512527466,
      -33.99732456907611,
      662.9
     ],
     [
      18.364138499590926,
      -33.99747887699429,
      668.9
     ],
     [
      18.364495038986206,
      -33.99788049777836,
      679.5
     ],
     [
      18.364725708961487,
      -33.99808507862506,
      682.4
     ],
     [
      18.365197777748108,
      -33.9983118959444,
      695.3
     ],
     [
      18.365508913993835,
      -33.99871216032471,
      695
     ],
     [
      18.365551829338074,
      -33.99884113400105,
      691.7
     ],
     [
      18.365567922592163,
      -33.99895231804762,
      687.8
     ],
     [
      18.365562558174133,
      -33.99919692243786,
      679.2
     ],
     [
      18.36556582537204,
      -33.99919795430638,
      679.2
     ]
    ]
   },
   "properties": {
    "routeId": "table-mountain--atlantic-west--pimple-traverse",
    "drawn": "2026-08-17"
   }
  },
  {
   "type": "Feature",
   "geometry": {
    "type": "LineString",
    "coordinates": [
     [
      18.438496592113523,
      -33.96270993336986,
      384.8
     ],
     [
      18.438497185707092,
      -33.96270750960538,
      384.8
     ],
     [
      18.438186049461365,
      -33.96258737961873,
      393.1
     ],
     [
      18.43805733043381,
      -33.962469943607225,
      398.7
     ],
     [
      18.437971472740173,
      -33.96239161186956,
      401.5
     ],
     [
      18.43782663345337,
      -33.96220919151597,
      412
     ],
     [
      18.437612056732178,
      -33.961991176433905,
      427.3
     ],
     [
      18.437579947128384,
      -33.96192980701882,
      431.7
     ],
     [
      18.437488675117493,
      -33.961755363573246,
      445
     ],
     [
      18.43730092048645,
      -33.96156849254015,
      467.1
     ],
     [
      18.436920046806335,
      -33.961154705220316,
      521.8
     ],
     [
      18.43678057193756,
      -33.9610479210691,
      536.5
     ],
     [
      18.436442613601685,
      -33.960816554948316,
      574.4
     ],
     [
      18.436201214790344,
      -33.96066527675989,
      595.7
     ],
     [
      18.435908957768785,
      -33.96060731050688,
      605
     ],
     [
      18.435707688331604,
      -33.96056739072991,
      612.5
     ],
     [
      18.435503840446472,
      -33.960429460223764,
      627.6
     ],
     [
      18.43527853488922,
      -33.96029152949399,
      641.6
     ],
     [
      18.434725999832153,
      -33.95999342037855,
      668.5
     ],
     [
      18.434506058692932,
      -33.959793197251905,
      678.7
     ],
     [
      18.43406118643472,
      -33.95963627019175,
      693.9
     ],
     [
      18.43403935432434,
      -33.95962856899475,
      694.5
     ],
     [
      18.43383014202118,
      -33.95959297365402,
      701
     ],
     [
      18.43356192111969,
      -33.9593927495849,
      710.8
     ],
     [
      18.433465361595154,
      -33.959352704714526,
      713.4
     ],
     [
      18.433454632759094,
      -33.95929486209072,
      713.2
     ],
     [
      18.433465361595154,
      -33.959250367737944,
      712.6
     ],
     [
      18.433449268341064,
      -33.959152480079936,
      712.4
     ],
     [
      18.433368802070618,
      -33.95909908676445,
      713.6
     ],
     [
      18.43327760696411,
      -33.959063491202194,
      714.8
     ],
     [
      18.433266642745053,
      -33.959063491202194,
      715
     ],
     [
      18.433213233947754,
      -33.959063491202194,
      715.9
     ],
     [
      18.433191776275635,
      -33.95907683953979,
      716.6
     ],
     [
      18.433138132095337,
      -33.95908128898519,
      717.6
     ],
     [
      18.433127403259277,
      -33.95909908676445,
      718.2
     ],
     [
      18.43303084373474,
      -33.959143581196344,
      721.2
     ],
     [
      18.433014750480652,
      -33.959161378962584,
      722
     ],
     [
      18.432982563972473,
      -33.959156929521384,
      722.5
     ],
     [
      18.432934284210205,
      -33.95916582840357,
      723.8
     ],
     [
      18.432923555374146,
      -33.959174727284825,
      724.3
     ],
     [
      18.43285381793976,
      -33.959174727284825,
      725.5
     ],
     [
      18.43283236026764,
      -33.95919252504455,
      726.5
     ],
     [
      18.43276798725128,
      -33.95918807560497,
      727.5
     ],
     [
      18.432682156562805,
      -33.95929931152472,
      732.5
     ],
     [
      18.432639241218567,
      -33.95930821039201,
      733.6
     ],
     [
      18.432623147964478,
      -33.95933045755618,
      734.6
     ],
     [
      18.432592561710962,
      -33.959347370412694,
      735.7
     ],
     [
      18.4325909614563,
      -33.959348255283324,
      735.7
     ],
     [
      18.43257486820221,
      -33.95931710925838,
      734.8
     ],
     [
      18.432612419128418,
      -33.95940609787083,
      737.5
     ],
     [
      18.4325909614563,
      -33.959414996726956,
      738.1
     ],
     [
      18.4325909614563,
      -33.95943279443643,
      738.8
     ],
     [
      18.43259632587433,
      -33.95944614271607,
      739.2
     ],
     [
      18.432587280810502,
      -33.959471150295805,
      740.2
     ],
     [
      18.43258023262024,
      -33.959490636966464,
      741
     ],
     [
      18.43253195285797,
      -33.95954847945716,
      743.8
     ],
     [
      18.43252139019418,
      -33.959583523498466,
      745.2
     ],
     [
      18.432515859603882,
      -33.959601872490595,
      745.8
     ],
     [
      18.432451486587524,
      -33.95962856899475,
      747.4
     ],
     [
      18.432451486587524,
      -33.95965586411978,
      748.2
     ],
     [
      18.432451486587524,
      -33.959677512563935,
      748.8
     ],
     [
      18.432419300079346,
      -33.95969086080519,
      749.6
     ],
     [
      18.432419300079346,
      -33.959735354927574,
      750.8
     ],
     [
      18.432408571243286,
      -33.95977539961784,
      752
     ],
     [
      18.432435393333435,
      -33.95982434310255,
      753
     ],
     [
      18.432430028915405,
      -33.959846590131754,
      753.7
     ],
     [
      18.432403206825256,
      -33.959877735962856,
      754.4
     ],
     [
      18.432392477989197,
      -33.95990443238045,
      754.6
     ],
     [
      18.4323388338089,
      -33.95995337579092,
      755.5
     ],
     [
      18.432343131562753,
      -33.95994951405575,
      755.4
     ],
     [
      18.4323388338089,
      -33.95995337579092,
      755.5
     ],
     [
      18.43233346939087,
      -33.959984521582925,
      755.7
     ],
     [
      18.43232274055481,
      -33.960015667363535,
      756
     ],
     [
      18.4323388338089,
      -33.96004681313274,
      755.7
     ],
     [
      18.43234419822693,
      -33.960091307068964,
      755.6
     ],
     [
      18.432360291481018,
      -33.96013580098191,
      755.3
     ],
     [
      18.432419300079346,
      -33.96022478873801,
      753.4
     ],
     [
      18.43258023262024,
      -33.96033602330223,
      748.7
     ],
     [
      18.43258559703827,
      -33.96037606770974,
      747.7
     ],
     [
      18.43255877494812,
      -33.9604161120984,
      747.5
     ],
     [
      18.43259632587433,
      -33.960420561473754,
      746.6
     ],
     [
      18.432633876800537,
      -33.96050065019035,
      744.4
     ],
     [
      18.432665421481204,
      -33.96053477696341,
      743.6
     ],
     [
      18.432757258415222,
      -33.96063413121712,
      741.2
     ],
     [
      18.432741165161133,
      -33.96070087165196,
      739.9
     ],
     [
      18.43277335166931,
      -33.96072756781123,
      738.9
     ],
     [
      18.43281090259552,
      -33.96073201717031,
      738.3
     ],
     [
      18.43278408050537,
      -33.9608032068837,
      736.8
     ],
     [
      18.4327894449234,
      -33.96087439653751,
      734.8
     ],
     [
      18.43303084373474,
      -33.96082100430274,
      732.2
     ],
     [
      18.433009386062622,
      -33.960950035479414,
      726.9
     ],
     [
      18.433245420455933,
      -33.960883295240045,
      726.4
     ],
     [
      18.433231798327437,
      -33.96096803354699,
      722.4
     ],
     [
      18.433213233947754,
      -33.96108351580107,
      716.6
     ],
     [
      18.433417081832886,
      -33.96100787697784,
      717.2
     ],
     [
      18.43356192111969,
      -33.96100787697784,
      714.6
     ],
     [
      18.433481454849243,
      -33.96111466117932,
      710.3
     ],
     [
      18.433449268341064,
      -33.96126593856861,
      702.6
     ],
     [
      18.43358874320984,
      -33.961216995913276,
      703
     ],
     [
      18.433738946914673,
      -33.9611769519016,
      702.5
     ],
     [
      18.433728218078613,
      -33.961208097245645,
      701.1
     ],
     [
      18.433679938316345,
      -33.96126148923747,
      699
     ],
     [
      18.433647751808167,
      -33.96135492514254,
      693.9
     ],
     [
      18.433878421783447,
      -33.96130153320935,
      690.8
     ],
     [
      18.43383014202118,
      -33.96155069527749,
      675.1
     ],
     [
      18.433969616889954,
      -33.961506202104566,
      671.9
     ],
     [
      18.434141278266907,
      -33.961430563657174,
      668.5
     ],
     [
      18.434189558029175,
      -33.96143501297947,
      665.2
     ],
     [
      18.434205651283264,
      -33.96147060754947,
      661.1
     ],
     [
      18.434173464775085,
      -33.96154624596125,
      656.8
     ],
     [
      18.43408763408661,
      -33.96168417465666,
      651.3
     ],
     [
      18.4341037273407,
      -33.96183100173184,
      638.7
     ],
     [
      18.434200286865234,
      -33.96204901722441,
      615.8
     ],
     [
      18.434264659881592,
      -33.962097959401056,
      608
     ],
     [
      18.4343022108078,
      -33.962057915804074,
      608.1
     ],
     [
      18.43433439731598,
      -33.96189774122768,
      617.8
     ],
     [
      18.434420228004456,
      -33.96180430591883,
      619
     ],
     [
      18.43457043170929,
      -33.9618621468364,
      605.3
     ],
     [
      18.43457579612732,
      -33.96187104543562,
      604.4
     ],
     [
      18.43457043170929,
      -33.9618621468364,
      605.3
     ],
     [
      18.43458116054535,
      -33.96191553841773,
      601.1
     ],
     [
      18.434865474700928,
      -33.96187104543562,
      588.1
     ],
     [
      18.434886932373047,
      -33.96190663982317,
      584.5
     ],
     [
      18.434994220733643,
      -33.961888842631254,
      579.5
     ],
     [
      18.43505322933197,
      -33.962071263671824,
      562.9
     ],
     [
      18.434988856315613,
      -33.96213800297917,
      562.6
     ],
     [
      18.434994220733643,
      -33.962213640797536,
      557.3
     ],
     [
      18.435192704200745,
      -33.962200292952126,
      544.7
     ],
     [
      18.435214161872864,
      -33.9622759307151,
      537.8
     ],
     [
      18.43527317047119,
      -33.96230262638009,
      531.7
     ],
     [
      18.435493111610413,
      -33.96225813360046,
      520.6
     ],
     [
      18.435509204864502,
      -33.96243610457939,
      507.2
     ],
     [
      18.435659408569336,
      -33.96240940895628,
      499.8
     ],
     [
      18.435675501823425,
      -33.96244500311856,
      496.9
     ],
     [
      18.435637950897217,
      -33.96268526332436,
      486.1
     ],
     [
      18.435680866241455,
      -33.96284098716937,
      477
     ],
     [
      18.435884714126587,
      -33.9627697991613,
      470.4
     ],
     [
      18.436190485954285,
      -33.96261407518597,
      463.9
     ],
     [
      18.436260223388672,
      -33.962609625925346,
      461.2
     ],
     [
      18.43654990196228,
      -33.9625028436005,
      455.7
     ],
     [
      18.436646461486816,
      -33.962485046533324,
      453.3
     ],
     [
      18.436726927757263,
      -33.962485046533324,
      450.6
     ],
     [
      18.43679666519165,
      -33.96253843772368,
      446
     ],
     [
      18.436855673789978,
      -33.96261852444637,
      441.2
     ],
     [
      18.436882495880127,
      -33.96277869766557,
      434.6
     ],
     [
      18.43703806400299,
      -33.96283208867162,
      429.5
     ],
     [
      18.437198996543884,
      -33.96282763942239,
      426.2
     ],
     [
      18.437504768371582,
      -33.96277869766557,
      418.4
     ],
     [
      18.43756914138794,
      -33.96291662436264,
      414.7
     ],
     [
      18.437676429748535,
      -33.96298336300674,
      409.5
     ],
     [
      18.437703251838684,
      -33.96321472323424,
      403
     ],
     [
      18.437874913215637,
      -33.96329036009519,
      394.6
     ],
     [
      18.438116312026978,
      -33.96329036009519,
      387.4
     ],
     [
      18.438424565274858,
      -33.96331166541841,
      378.1
     ]
    ]
   },
   "properties": {
    "routeId": "table-mountain--newlands-east--dark-gorge",
    "drawn": "2026-08-17"
   }
  }
 ]
}
